SKYSAT-A                
1 39418U 13066C   23052.81509870  .00005076  00000+0  39672-3 0  9998
2 39418  97.5384 122.0838 0033543 136.4642 223.9239 15.01076184506049
SKYSAT-B                
1 40072U 14037D   23052.92643116  .00001716  00000+0  22243-3 0  9992
2 40072  98.3769 298.3377 0005164 227.4080 132.6697 14.82218071466199
SKYSAT-C1               
1 41601U 16040C   23052.78212745  .00019203  00000+0  49366-3 0  9996
2 41601  97.1264 126.7116 0000895  99.8974 260.2374 15.39313901372332
FLOCK 2P-9              
1 41610U 16040M   23053.12907269  .00284435  00000+0  20665-2 0  9998
2 41610  97.1928 114.8640 0006271 223.0761 137.0013 15.72515498371611
FLOCK 2P-8              
1 41613U 16040Q   23053.13938629  .00228312  00000+0  20882-2 0  9999
2 41613  97.2010 115.6048 0006752 263.0254  97.0239 15.67079011371742
FLOCK 2P-3              
1 41618U 16040V   23053.11612773  .00190641  00000+0  18174-2 0  9995
2 41618  97.1980 116.4170 0004198 280.6883  79.3905 15.66174316371760
SKYSAT-C4               
1 41771U 16058B   23053.38713644  .00017374  00000+0  44939-3 0  9992
2 41771  97.0841 115.8901 0001668 169.2236 190.9047 15.39144325359381
SKYSAT-C5               
1 41772U 16058C   23053.50522453  .00010076  00000+0  35288-3 0  9992
2 41772  97.2310 115.2495 0002288  67.2580 292.8902 15.29674001357956
SKYSAT-C2               
1 41773U 16058D   23053.11993880  .00018627  00000+0  48223-3 0  9999
2 41773  97.0858 116.0288 0001526 149.6913 210.4422 15.39101580359368
SKYSAT-C3               
1 41774U 16058E   23053.18219533  .00020817  00000+0  44510-3 0  9992
2 41774  97.0847 118.0775 0000548 121.0362 239.0941 15.44844235359501
FLOCK 3P-24             
1 41956U 17008J   23052.78145106  .00035834  00000+0  82015-3 0  9996
2 41956  97.2510 124.7316 0005017  34.2548 325.9023 15.42703390335610
FLOCK 3P-3              
1 41968U 17008W   23053.48299300  .00424580  00000+0  33341-2 0  9990
2 41968  97.2336 123.5264 0004220 325.4389  34.6599 15.70254584335429
FLOCK 3P-33             
1 41990U 17008AU  23053.11068768  .00406763  00000+0  38398-2 0  9997
2 41990  97.2388 120.7881 0003504 298.1564  61.9342 15.65754526334692
FLOCK 3P-74             
1 42048U 17008DE  23053.43012280  .00207411  00000+0  20006-2 0  9991
2 42048  97.2412 125.1455 0003268 317.8756  42.2252 15.65830321334791
SKYSAT-C11              
1 42987U 17068A   23052.90620106  .00023091  00000+0  59329-3 0  9993
2 42987  97.3090 175.7178 0002560 165.3171 194.8149 15.39294714296742
SKYSAT-C10              
1 42988U 17068B   23052.87428976  .00023489  00000+0  60396-3 0  9998
2 42988  97.3144 176.0947 0002662 145.4598 214.6821 15.39268820296765
SKYSAT-C9               
1 42989U 17068C   23053.11153577  .00023224  00000+0  59651-3 0  9998
2 42989  97.3074 175.2857 0000815  43.7157 316.4154 15.39306092296997
SKYSAT-C8               
1 42990U 17068D   23052.86685112  .00022934  00000+0  58880-3 0  9996
2 42990  97.3159 176.5158 0001114  85.0953 275.0420 15.39322212296782
SKYSAT-C7               
1 42991U 17068E   23053.09405129  .00023500  00000+0  60252-3 0  9997
2 42991  97.3160 176.8525 0003190 161.7970 198.3391 15.39354567296820
SKYSAT-C6               
1 42992U 17068F   23053.14981447  .00023158  00000+0  59444-3 0  9996
2 42992  97.3184 177.3587 0002165 177.1345 182.9913 15.39324573296844
FLOCK 3P'-3             
1 43119U 18004J   23052.67613531  .00078373  00000+0  19710-2 0  9992
2 43119  97.3408 129.6593 0007005 206.3382 153.7509 15.39634778284335
FLOCK 3P'-2             
1 43120U 18004K   23052.76838900  .00056610  00000+0  15824-2 0  9995
2 43120  97.3469 129.0537 0007645 204.7846 155.3032 15.36462916284297
FLOCK 3P'-4             
1 43122U 18004M   23052.73962835  .00050092  00000+0  14045-2 0  9991
2 43122  97.3488 129.2556 0007120 203.3136 156.7786 15.36402972284295
FLOCK 3S-1              
1 43769U 18099M   23052.71797196  .00010641  00000+0  89872-3 0  9993
2 43769  97.5884 116.6338 0014424 153.0782 207.1192 14.98200393230298
SKYSAT-C12              
1 43797U 18099AR  23053.15015245  .00019008  00000+0  48653-3 0  9999
2 43797  97.0932 117.5239 0001615  79.8862 280.2566 15.39447862235876
SKYSAT-C13              
1 43802U 18099AW  23053.13567978  .00021268  00000+0  50809-3 0  9996
2 43802  97.1206 117.0221 0001619  69.4147 290.7274 15.41525175235373
FLOCK 4A-2              
1 44080U 19018C   23053.14176903  .00054291  00000+0  10663-2 0  9997
2 44080  97.2637 116.5405 0005446 264.9925  95.0704 15.47122110217065
FLOCK 4A-17             
1 44088U 19018L   23053.13447036  .00396401  00000+0  22011-2 0  9994
2 44088  97.2658 118.5162 0006394 265.0291  95.0246 15.78421516217167
FLOCK 4A-19             
1 44090U 19018N   23053.15542299  .00643072  00000+0  23522-2 0  9993
2 44090  97.2587 118.8373 0007126 267.6809  92.3646 15.86818958214873
FLOCK 4A-6              
1 44094U 19018S   23053.15417234  .00034276  00000+0  73988-3 0  9999
2 44094  97.2733 117.0622 0005963 296.8906  63.1732 15.44451201217072
FLOCK 4A-5              
1 44095U 19018T   23053.14778568  .00678260  00000+0  38797-2 0  9994
2 44095  97.2636 117.8034 0007965 268.6513  91.3841 15.76992837217114
FLOCK 4A-11             
1 44096U 19018U   23053.16776243  .00038397  00000+0  80965-3 0  9991
2 44096  97.2736 117.2272 0006171 301.6141  58.4506 15.45117742217074
FLOCK 4A-9              
1 44098U 19018W   23053.12262571  .00080659  00000+0  12929-2 0  9995
2 44098  97.2765 117.9605 0006219 305.1404  54.9266 15.52789719217115
FLOCK 4P-10             
1 44808U 19081E   23053.13090659  .00198792  00000+0  31818-2 0  9997
2 44808  97.3614 123.0936 0004207  18.6917 341.4489 15.52407007180176
FLOCK 4P-11             
1 44809U 19081F   23053.13819069  .00027064  00000+0  72629-3 0  9991
2 44809  97.3666 122.4678 0009752  48.4734 311.7345 15.37878492180138
FLOCK 4P-4              
1 44811U 19081H   23053.19084535  .00100970  00000+0  17664-2 0  9997
2 44811  97.3731 124.6732 0003813  31.4925 328.6554 15.50261890180249
FLOCK 4P-3              
1 44812U 19081J   23053.14335733  .00144185  00000+0  22649-2 0  9997
2 44812  97.3678 124.9538 0003871  26.8326 333.3127 15.53128472180266
FLOCK 4P-1              
1 44814U 19081L   23053.13573992  .00187181  00000+0  30559-2 0  9991
2 44814  97.3636 122.9760 0002904  19.5666 340.5697 15.51897030180150
FLOCK 4P-7              
1 44816U 19081N   23052.76791015  .00031836  00000+0  83696-3 0  9995
2 44816  97.3680 122.3350 0008463  38.5002 321.6845 15.38492855180089
FLOCK 4P-5              
1 44818U 19081Q   23052.71621687  .00027456  00000+0  76763-3 0  9999
2 44818  97.3681 122.1368 0007968  48.6871 311.5058 15.36618501180062
SKYSAT-C14              
1 45788U 20038BL  23052.87050788  .00050160  00000+0  70337-3 0  9994
2 45788  52.9867 191.0024 0003500 313.9003  46.1717 15.56275066153575
SKYSAT-C16              
1 45789U 20038BM  23053.07695300  .00046392  00000+0  66775-3 0  9996
2 45789  52.9884 189.5263 0001980  79.4747 280.6486 15.55604278153603
SKYSAT-C15              
1 45790U 20038BN  23053.10913151  .00051689  00000+0  71959-3 0  9994
2 45790  52.9873 189.5870 0001069  33.6494 326.4583 15.56462079153605
SKYSAT-C17              
1 46179U 20057BQ  23052.88992172  .00047274  00000+0  61022-3 0  9996
2 46179  52.9864 282.4640 0009701 329.6689  30.3759 15.58475408144181
SKYSAT-C18              
1 46180U 20057BR  23053.20672841  .00023249  00000+0  21281-3 0  9992
2 46180  52.9840 277.4508 0007175 315.8175  44.2266 15.67690793142983
SKYSAT-C19              
1 46235U 20057BS  23053.10037983  .00040394  00000+0  48264-3 0  9994
2 46235  52.9834 278.4188 0009142 325.0501  34.9910 15.60589816142960
FLOCK 4V-11             
1 46285U 20061P   23053.49319535  .00011274  00000+0  51450-3 0  9998
2 46285  97.4168 123.8038 0004211 106.8464 253.3234 15.20767396136394
FLOCK 4V-14             
1 46286U 20061Q   23053.41950894  .00032059  00000+0  14464-2 0  9997
2 46286  97.4171 123.7593 0003844  99.3166 260.8504 15.20931980136384
FLOCK 4V-8              
1 46288U 20061S   23053.14825964  .00020240  00000+0  91975-3 0  9990
2 46288  97.4156 123.4818 0003064 112.3293 247.8267 15.20785065136255
FLOCK 4V-6              
1 46289U 20061T   23052.76669832  .00014776  00000+0  69430-3 0  9996
2 46289  97.4197 123.1429 0002481 130.7587 229.3864 15.19700517136286
FLOCK 4V-5              
1 46290U 20061U   23053.12283790  .00010505  00000+0  55061-3 0  9995
2 46290  97.4188 122.4843 0003588 121.1833 238.9752 15.15956540136273
FLOCK 4V-7              
1 46291U 20061V   23053.44459757  .00038691  00000+0  17490-2 0  9998
2 46291  97.4192 123.8839 0003969 125.1043 235.0565 15.20821617136282
FLOCK 4V-10             
1 46296U 20061AA  23052.73743777  .00016090  00000+0  73228-3 0  9993
2 46296  97.4181 123.3527 0001037  63.5406 296.5935 15.20784397136259
FLOCK 4V-13             
1 46297U 20061AB  23053.12435625  .00029217  00000+0  13215-2 0  9992
2 46297  97.4183 123.7547 0001527  81.3524 278.7884 15.20871071136296
FLOCK 4V-1              
1 46313U 20061AT  23052.77993813  .00018594  00000+0  84619-3 0  9992
2 46313  97.4193 123.7842 0002795  48.6238 311.5238 15.20752493136273
FLOCK 4V-4              
1 46314U 20061AU  23052.94423418  .00036966  00000+0  16713-2 0  9993
2 46314  97.4139 123.8584 0003033  38.9651 321.2950 15.20830759136344
FLOCK 4V-2              
1 46321U 20061BB  23053.18185740  .00025861  00000+0  10873-2 0  9994
2 46321  97.4193 125.2311 0002810  37.3923 322.7509 15.23388061136335
FLOCK 4V-16             
1 46527U 20061BD  23052.68806418  .00075895  00000+0  25388-2 0  9997
2 46527  97.3678 125.1220 0005567 320.7986  39.2851 15.30670617132849
FLOCK 4V-15             
1 46528U 20061BE  23052.69909302  .00020253  00000+0  69298-3 0  9992
2 46528  97.3663 125.5192 0002368  10.2480 349.8809 15.30274313133232
FLOCK 4V-17             
1 46529U 20061BF  23053.18425262  .00042976  00000+0  14598-2 0  9994
2 46529  97.3629 125.5971 0001997 352.7528   7.3683 15.30351580132501
